[{"OBJECT_NAME":"UHETSAT","OBJECT_ID":"2023-185E","EPOCH":"2026-03-09T22:39:26.455680","MEAN_MOTION":15.29797662,"ECCENTRICITY":0.00118435,"INCLINATION":97.3584,"RA_OF_ASC_NODE":137.3576,"ARG_OF_PERICENTER":307.7346,"MEAN_ANOMALY":52.2821,"EPHEMERIS_TYPE":0,"CLASSIFICATION_TYPE":"U","NORAD_CAT_ID":58466,"ELEMENT_SET_NO":999,"REV_AT_EPOCH":12611,"BSTAR":0.00030513019,"MEAN_MOTION_DOT":8.749e-5,"MEAN_MOTION_DDOT":0},{"OBJECT_NAME":"STARLINK-35678","OBJECT_ID":"2025-288N","EPOCH":"2026-03-09T06:31:43.899168","MEAN_MOTION":15.27579927,"ECCENTRICITY":0.00031155,"INCLINATION":43.0048,"RA_OF_ASC_NODE":25.7996,"ARG_OF_PERICENTER":243.2531,"MEAN_ANOMALY":116.8002,"EPHEMERIS_TYPE":0,"CLASSIFICATION_TYPE":"U","NORAD_CAT_ID":66971,"ELEMENT_SET_NO":999,"REV_AT_EPOCH":1522,"BSTAR":0.0010863423,"MEAN_MOTION_DOT":0.00029755,"MEAN_MOTION_DDOT":0}]
